[{"OBJECT_NAME":"OBJECT B","OBJECT_ID":"2022-023B","EPOCH":"2026-03-09T22:47:53.401632","MEAN_MOTION":15.18262382,"ECCENTRICITY":0.00937159,"INCLINATION":63.476,"RA_OF_ASC_NODE":246.6999,"ARG_OF_PERICENTER":346.6129,"MEAN_ANOMALY":13.2499,"EPHEMERIS_TYPE":0,"CLASSIFICATION_TYPE":"U","NORAD_CAT_ID":51947,"ELEMENT_SET_NO":999,"REV_AT_EPOCH":22265,"BSTAR":0.00086643699,"MEAN_MOTION_DOT":0.00019848,"MEAN_MOTION_DDOT":0},{"OBJECT_NAME":"STARLINK-35509","OBJECT_ID":"2025-243Y","EPOCH":"2026-03-09T19:22:15.415968","MEAN_MOTION":15.30205868,"ECCENTRICITY":9.629e-5,"INCLINATION":53.1599,"RA_OF_ASC_NODE":244.5686,"ARG_OF_PERICENTER":64.9004,"MEAN_ANOMALY":295.2097,"EPHEMERIS_TYPE":0,"CLASSIFICATION_TYPE":"U","NORAD_CAT_ID":66199,"ELEMENT_SET_NO":999,"REV_AT_EPOCH":2067,"BSTAR":0.00094307228,"MEAN_MOTION_DOT":0.00027681,"MEAN_MOTION_DDOT":0}]
